CCSDS_OMM_VERS = 2.0
CREATION_DATE  = 
ORIGINATOR     = 

OBJECT_NAME    = STARLINK-35761
OBJECT_ID      = 2025-288C
CENTER_NAME    = EARTH
REF_FRAME      = TEME
TIME_SYSTEM    = UTC
MEAN_ELEMENT_THEORY = SGP/SGP4

EPOCH          = 2025-12-16T14:00:03.000384
MEAN_MOTION    = 15.91193502
ECCENTRICITY   = .00016481
INCLINATION    = 43.0009
RA_OF_ASC_NODE = 143.7913
ARG_OF_PERICENTER = 269.4345
MEAN_ANOMALY   = 5.9922

EPHEMERIS_TYPE = 0
CLASSIFICATION_TYPE = U
NORAD_CAT_ID   = 66961
ELEMENT_SET_NO = 999
REV_AT_EPOCH   = 245
BSTAR          = -.39038489E-2
MEAN_MOTION_DOT = -.1286068E-1
MEAN_MOTION_DDOT = .47494021E-3

CCSDS_OMM_VERS = 2.0
CREATION_DATE  = 
ORIGINATOR     = 

OBJECT_NAME    = STARLINK-35874
OBJECT_ID      = 2025-288D
CENTER_NAME    = EARTH
REF_FRAME      = TEME
TIME_SYSTEM    = UTC
MEAN_ELEMENT_THEORY = SGP/SGP4

EPOCH          = 2025-12-16T14:00:03.000384
MEAN_MOTION    = 15.91258062
ECCENTRICITY   = .00016798
INCLINATION    = 43.0009
RA_OF_ASC_NODE = 143.7852
ARG_OF_PERICENTER = 265.2732
MEAN_ANOMALY   = 12.5507

EPHEMERIS_TYPE = 0
CLASSIFICATION_TYPE = U
NORAD_CAT_ID   = 66962
ELEMENT_SET_NO = 999
REV_AT_EPOCH   = 245
BSTAR          = -.39550127E-2
MEAN_MOTION_DOT = -.1307049E-1
MEAN_MOTION_DDOT = .48952147E-3

CCSDS_OMM_VERS = 2.0
CREATION_DATE  = 
ORIGINATOR     = 

OBJECT_NAME    = STARLINK-36133
OBJECT_ID      = 2025-288E
CENTER_NAME    = EARTH
REF_FRAME      = TEME
TIME_SYSTEM    = UTC
MEAN_ELEMENT_THEORY = SGP/SGP4

EPOCH          = 2025-12-16T14:00:03.000384
MEAN_MOTION    = 15.91322500
ECCENTRICITY   = .0001662
INCLINATION    = 43.0010
RA_OF_ASC_NODE = 143.7809
ARG_OF_PERICENTER = 264.2062
MEAN_ANOMALY   = 15.3668

EPHEMERIS_TYPE = 0
CLASSIFICATION_TYPE = U
NORAD_CAT_ID   = 66963
ELEMENT_SET_NO = 999
REV_AT_EPOCH   = 245
BSTAR          = -.40224604E-2
MEAN_MOTION_DOT = -.1333473E-1
MEAN_MOTION_DDOT = .50810595E-3

CCSDS_OMM_VERS = 2.0
CREATION_DATE  = 
ORIGINATOR     = 

OBJECT_NAME    = STARLINK-36104
OBJECT_ID      = 2025-288F
CENTER_NAME    = EARTH
REF_FRAME      = TEME
TIME_SYSTEM    = UTC
MEAN_ELEMENT_THEORY = SGP/SGP4

EPOCH          = 2025-12-16T14:00:03.000384
MEAN_MOTION    = 15.91381929
ECCENTRICITY   = .00016875
INCLINATION    = 43.0012
RA_OF_ASC_NODE = 143.7760
ARG_OF_PERICENTER = 264.1667
MEAN_ANOMALY   = 17.2313

EPHEMERIS_TYPE = 0
CLASSIFICATION_TYPE = U
NORAD_CAT_ID   = 66964
ELEMENT_SET_NO = 999
REV_AT_EPOCH   = 245
BSTAR          = -.40599566E-2
MEAN_MOTION_DOT = -.1349864E-1
MEAN_MOTION_DDOT = .51989801E-3

CCSDS_OMM_VERS = 2.0
CREATION_DATE  = 
ORIGINATOR     = 

OBJECT_NAME    = STARLINK-36067
OBJECT_ID      = 2025-288G
CENTER_NAME    = EARTH
REF_FRAME      = TEME
TIME_SYSTEM    = UTC
MEAN_ELEMENT_THEORY = SGP/SGP4

EPOCH          = 2025-12-16T14:00:03.000384
MEAN_MOTION    = 15.91459647
ECCENTRICITY   = .00016181
INCLINATION    = 43.0011
RA_OF_ASC_NODE = 143.7715
ARG_OF_PERICENTER = 269.0061
MEAN_ANOMALY   = 14.2021

EPHEMERIS_TYPE = 0
CLASSIFICATION_TYPE = U
NORAD_CAT_ID   = 66965
ELEMENT_SET_NO = 999
REV_AT_EPOCH   = 245
BSTAR          = -.41720134E-2
MEAN_MOTION_DOT = -.1392205E-1
MEAN_MOTION_DDOT = .55057089E-3

CCSDS_OMM_VERS = 2.0
CREATION_DATE  = 
ORIGINATOR     = 

OBJECT_NAME    = STARLINK-36139
OBJECT_ID      = 2025-288H
CENTER_NAME    = EARTH
REF_FRAME      = TEME
TIME_SYSTEM    = UTC
MEAN_ELEMENT_THEORY = SGP/SGP4

EPOCH          = 2025-12-16T14:00:03.000384
MEAN_MOTION    = 15.91510909
ECCENTRICITY   = .00016164
INCLINATION    = 43.0010
RA_OF_ASC_NODE = 143.7657
ARG_OF_PERICENTER = 263.3630
MEAN_ANOMALY   = 22.1483

EPHEMERIS_TYPE = 0
CLASSIFICATION_TYPE = U
NORAD_CAT_ID   = 66966
ELEMENT_SET_NO = 999
REV_AT_EPOCH   = 245
BSTAR          = -.41716004E-2
MEAN_MOTION_DOT = -.1395724E-1
MEAN_MOTION_DDOT = .5533968E-3

CCSDS_OMM_VERS = 2.0
CREATION_DATE  = 
ORIGINATOR     = 

OBJECT_NAME    = STARLINK-36136
OBJECT_ID      = 2025-288J
CENTER_NAME    = EARTH
REF_FRAME      = TEME
TIME_SYSTEM    = UTC
MEAN_ELEMENT_THEORY = SGP/SGP4

EPOCH          = 2025-12-16T14:00:03.000384
MEAN_MOTION    = 15.91570387
ECCENTRICITY   = .00016567
INCLINATION    = 43.0010
RA_OF_ASC_NODE = 143.7610
ARG_OF_PERICENTER = 261.6104
MEAN_ANOMALY   = 25.7030

EPHEMERIS_TYPE = 0
CLASSIFICATION_TYPE = U
NORAD_CAT_ID   = 66967
ELEMENT_SET_NO = 999
REV_AT_EPOCH   = 245
BSTAR          = -.42269257E-2
MEAN_MOTION_DOT = -.1418343E-1
MEAN_MOTION_DDOT = .5702704E-3

CCSDS_OMM_VERS = 2.0
CREATION_DATE  = 
ORIGINATOR     = 

OBJECT_NAME    = STARLINK-36152
OBJECT_ID      = 2025-288K
CENTER_NAME    = EARTH
REF_FRAME      = TEME
TIME_SYSTEM    = UTC
MEAN_ELEMENT_THEORY = SGP/SGP4

EPOCH          = 2025-12-16T14:00:03.000384
MEAN_MOTION    = 15.91628269
ECCENTRICITY   = .00016391
INCLINATION    = 43.0011
RA_OF_ASC_NODE = 143.7550
ARG_OF_PERICENTER = 272.5242
MEAN_ANOMALY   = 17.1845

EPHEMERIS_TYPE = 0
CLASSIFICATION_TYPE = U
NORAD_CAT_ID   = 66968
ELEMENT_SET_NO = 999
REV_AT_EPOCH   = 245
BSTAR          = -.42486776E-2
MEAN_MOTION_DOT = -.1429785E-1
MEAN_MOTION_DDOT = .57905283E-3

CCSDS_OMM_VERS = 2.0
CREATION_DATE  = 
ORIGINATOR     = 

OBJECT_NAME    = STARLINK-36149
OBJECT_ID      = 2025-288L
CENTER_NAME    = EARTH
REF_FRAME      = TEME
TIME_SYSTEM    = UTC
MEAN_ELEMENT_THEORY = SGP/SGP4

EPOCH          = 2025-12-16T14:00:03.000384
MEAN_MOTION    = 15.91906646
ECCENTRICITY   = .00016124
INCLINATION    = 43.0010
RA_OF_ASC_NODE = 143.7294
ARG_OF_PERICENTER = 271.8410
MEAN_ANOMALY   = 28.0202

EPHEMERIS_TYPE = 0
CLASSIFICATION_TYPE = U
NORAD_CAT_ID   = 66969
ELEMENT_SET_NO = 999
REV_AT_EPOCH   = 245
BSTAR          = -.43315647E-2
MEAN_MOTION_DOT = -.1478305E-1
MEAN_MOTION_DDOT = .61725758E-3

CCSDS_OMM_VERS = 2.0
CREATION_DATE  = 
ORIGINATOR     = 

OBJECT_NAME    = STARLINK-35703
OBJECT_ID      = 2025-288M
CENTER_NAME    = EARTH
REF_FRAME      = TEME
TIME_SYSTEM    = UTC
MEAN_ELEMENT_THEORY = SGP/SGP4

EPOCH          = 2025-12-16T14:00:03.000384
MEAN_MOTION    = 15.92129761
ECCENTRICITY   = .00016434
INCLINATION    = 43.0011
RA_OF_ASC_NODE = 143.7085
ARG_OF_PERICENTER = 268.0465
MEAN_ANOMALY   = 39.9977

EPHEMERIS_TYPE = 0
CLASSIFICATION_TYPE = U
NORAD_CAT_ID   = 66970
ELEMENT_SET_NO = 999
REV_AT_EPOCH   = 245
BSTAR          = -.43672224E-2
MEAN_MOTION_DOT = -.1507537E-1
MEAN_MOTION_DDOT = .64122949E-3

CCSDS_OMM_VERS = 2.0
CREATION_DATE  = 
ORIGINATOR     = 

OBJECT_NAME    = STARLINK-35678
OBJECT_ID      = 2025-288N
CENTER_NAME    = EARTH
REF_FRAME      = TEME
TIME_SYSTEM    = UTC
MEAN_ELEMENT_THEORY = SGP/SGP4

EPOCH          = 2025-12-16T14:00:03.000384
MEAN_MOTION    = 15.91677671
ECCENTRICITY   = .00016403
INCLINATION    = 43.0014
RA_OF_ASC_NODE = 143.7520
ARG_OF_PERICENTER = 268.1448
MEAN_ANOMALY   = 22.9013

EPHEMERIS_TYPE = 0
CLASSIFICATION_TYPE = U
NORAD_CAT_ID   = 66971
ELEMENT_SET_NO = 999
REV_AT_EPOCH   = 245
BSTAR          = -.42640491E-2
MEAN_MOTION_DOT = -.1438535E-1
MEAN_MOTION_DDOT = .58584621E-3

CCSDS_OMM_VERS = 2.0
CREATION_DATE  = 
ORIGINATOR     = 

OBJECT_NAME    = STARLINK-34846
OBJECT_ID      = 2025-288P
CENTER_NAME    = EARTH
REF_FRAME      = TEME
TIME_SYSTEM    = UTC
MEAN_ELEMENT_THEORY = SGP/SGP4

EPOCH          = 2025-12-16T14:00:03.000384
MEAN_MOTION    = 15.91736626
ECCENTRICITY   = .00016766
INCLINATION    = 43.0012
RA_OF_ASC_NODE = 143.7459
ARG_OF_PERICENTER = 266.1926
MEAN_ANOMALY   = 27.2212

EPHEMERIS_TYPE = 0
CLASSIFICATION_TYPE = U
NORAD_CAT_ID   = 66972
ELEMENT_SET_NO = 999
REV_AT_EPOCH   = 245
BSTAR          = -.42777567E-2
MEAN_MOTION_DOT = -.1447482E-1
MEAN_MOTION_DDOT = .5928824E-3

CCSDS_OMM_VERS = 2.0
CREATION_DATE  = 
ORIGINATOR     = 

OBJECT_NAME    = STARLINK-35778
OBJECT_ID      = 2025-288Q
CENTER_NAME    = EARTH
REF_FRAME      = TEME
TIME_SYSTEM    = UTC
MEAN_ELEMENT_THEORY = SGP/SGP4

EPOCH          = 2025-12-16T14:00:03.000384
MEAN_MOTION    = 15.91794298
ECCENTRICITY   = .00017107
INCLINATION    = 43.0013
RA_OF_ASC_NODE = 143.7406
ARG_OF_PERICENTER = 267.9414
MEAN_ANOMALY   = 27.5857

EPHEMERIS_TYPE = 0
CLASSIFICATION_TYPE = U
NORAD_CAT_ID   = 66973
ELEMENT_SET_NO = 999
REV_AT_EPOCH   = 245
BSTAR          = -.4298407E-2
MEAN_MOTION_DOT = -.1458705E-1
MEAN_MOTION_DDOT = .60167468E-3

CCSDS_OMM_VERS = 2.0
CREATION_DATE  = 
ORIGINATOR     = 

OBJECT_NAME    = STARLINK-35780
OBJECT_ID      = 2025-288R
CENTER_NAME    = EARTH
REF_FRAME      = TEME
TIME_SYSTEM    = UTC
MEAN_ELEMENT_THEORY = SGP/SGP4

EPOCH          = 2025-12-16T14:00:03.000384
MEAN_MOTION    = 15.91848995
ECCENTRICITY   = .00016659
INCLINATION    = 43.0015
RA_OF_ASC_NODE = 143.7357
ARG_OF_PERICENTER = 267.7470
MEAN_ANOMALY   = 29.8137

EPHEMERIS_TYPE = 0
CLASSIFICATION_TYPE = U
NORAD_CAT_ID   = 66974
ELEMENT_SET_NO = 999
REV_AT_EPOCH   = 245
BSTAR          = -.43149367E-2
MEAN_MOTION_DOT = -.1468355E-1
MEAN_MOTION_DDOT = .60931785E-3

CCSDS_OMM_VERS = 2.0
CREATION_DATE  = 
ORIGINATOR     = 

OBJECT_NAME    = STARLINK-35777
OBJECT_ID      = 2025-288S
CENTER_NAME    = EARTH
REF_FRAME      = TEME
TIME_SYSTEM    = UTC
MEAN_ELEMENT_THEORY = SGP/SGP4

EPOCH          = 2025-12-16T14:00:03.000384
MEAN_MOTION    = 15.91970964
ECCENTRICITY   = .00016506
INCLINATION    = 43.0016
RA_OF_ASC_NODE = 143.7250
ARG_OF_PERICENTER = 270.8357
MEAN_ANOMALY   = 30.8122

EPHEMERIS_TYPE = 0
CLASSIFICATION_TYPE = U
NORAD_CAT_ID   = 66975
ELEMENT_SET_NO = 999
REV_AT_EPOCH   = 245
BSTAR          = -.4362842E-2
MEAN_MOTION_DOT = -.1493789E-1
MEAN_MOTION_DDOT = .62956716E-3

